[{"OBJECT_NAME":"ICEYE-X30","OBJECT_ID":"2023-084R","EPOCH":"2026-03-09T21:18:40.033440","MEAN_MOTION":15.72701856,"ECCENTRICITY":0.00049319,"INCLINATION":97.5707,"RA_OF_ASC_NODE":220.1726,"ARG_OF_PERICENTER":282.9335,"MEAN_ANOMALY":77.1377,"EPHEMERIS_TYPE":0,"CLASSIFICATION_TYPE":"U","NORAD_CAT_ID":56947,"ELEMENT_SET_NO":999,"REV_AT_EPOCH":15325,"BSTAR":0.00083938221,"MEAN_MOTION_DOT":0.00114026,"MEAN_MOTION_DDOT":0},{"OBJECT_NAME":"STARLINK-11244 [DTC]","OBJECT_ID":"2024-155C","EPOCH":"2026-03-09T21:29:18.269376","MEAN_MOTION":15.69710385,"ECCENTRICITY":9.391e-5,"INCLINATION":53.1591,"RA_OF_ASC_NODE":340.3147,"ARG_OF_PERICENTER":80.5883,"MEAN_ANOMALY":279.5241,"EPHEMERIS_TYPE":0,"CLASSIFICATION_TYPE":"U","NORAD_CAT_ID":60926,"ELEMENT_SET_NO":999,"REV_AT_EPOCH":8848,"BSTAR":-2.1513896e-5,"MEAN_MOTION_DOT":-3.194e-5,"MEAN_MOTION_DDOT":0}]
